start=new Date('2022-01-14T00:00:00.000Z').valueOf();
sats=[{"RCS_SIZE":"LARGE","TIME_SYSTEM":"UTC","OBJECT_TYPE":"PAYLOAD","RA_OF_ASC_NODE":"256.1852","MEAN_ELEMENT_THEORY":"SGP4","EPOCH":"2022-01-13T22:00:00.999936","CENTER_NAME":"EARTH","TLE_LINE1":"1 48411U 21038BL  22013.91667824 -.00015614  00000-0 -10314-2 0  9993","NORAD_CAT_ID":"48411","OBJECT_ID":"2021-038BL","MEAN_ANOMALY":"189.2092","LAUNCH_DATE":"2021-05-04","ARG_OF_PERICENTER":"67.8015","SEMIMAJOR_AXIS":"6925.333","MEAN_MOTION":"15.06405167","COUNTRY_CODE":"US","REV_AT_EPOCH":"356","BSTAR":"-0.00103140000000","INCLINATION":"53.0548","REF_FRAME":"TEME","APOAPSIS":"548.778","GP_ID":"193812119","FILE":"3272312","ECCENTRICITY":"0.00022820","ELEMENT_SET_NO":"999","MEAN_MOTION_DOT":"-0.00015614","CLASSIFICATION_TYPE":"U","SITE":"AFETR","DECAY_DATE":null,"OBJECT_NAME":"STARLINK-2505","TLE_LINE2":"2 48411  53.0548 256.1852 0002282  67.8015 189.2092 15.06405167  3565","PERIAPSIS":"545.617","PERIOD":"95.592","MEAN_MOTION_DDOT":"0.0000000000000","EPHEMERIS_TYPE":"0"},{"ELEMENT_SET_NO":"999","MEAN_MOTION_DOT":"-0.00021553","SITE":"AFETR","CLASSIFICATION_TYPE":"U","DECAY_DATE":null,"OBJECT_NAME":"STARLINK-2581","TLE_LINE2":"2 48412  53.0547 256.1856 0002309  64.7230 317.4520 15.06392043  3574","PERIAPSIS":"545.639","MEAN_MOTION_DDOT":"0.0000000000000","PERIOD":"95.593","EPHEMERIS_TYPE":"0","BSTAR":"-0.00143260000000","INCLINATION":"53.0547","REF_FRAME":"TEME","GP_ID":"193812370","APOAPSIS":"548.837","ECCENTRICITY":"0.00023090","FILE":"3272312","LAUNCH_DATE":"2021-05-04","SEMIMAJOR_AXIS":"6925.373","ARG_OF_PERICENTER":"64.7230","MEAN_MOTION":"15.06392043","COUNTRY_CODE":"US","REV_AT_EPOCH":"357","RCS_SIZE":"LARGE","OBJECT_TYPE":"PAYLOAD","TIME_SYSTEM":"UTC","RA_OF_ASC_NODE":"256.1856","EPOCH":"2022-01-13T22:00:00.999936","MEAN_ELEMENT_THEORY":"SGP4","TLE_LINE1":"1 48412U 21038BM  22013.91667824 -.00021553  00000-0 -14326-2 0  9990","NORAD_CAT_ID":"48412","CENTER_NAME":"EARTH","OBJECT_ID":"2021-038BM","MEAN_ANOMALY":"317.4520"},{"BSTAR":"0.00004033400000","INCLINATION":"53.0554","REF_FRAME":"TEME","APOAPSIS":"548.149","GP_ID":"193811871","ECCENTRICITY":"0.00013890","FILE":"3272312","MEAN_MOTION_DOT":"0.00000319","ELEMENT_SET_NO":"999","DECAY_DATE":null,"SITE":"AFETR","CLASSIFICATION_TYPE":"U","OBJECT_NAME":"STARLINK-2461","PERIAPSIS":"546.226","TLE_LINE2":"2 48428  53.0554 152.1704 0001389  59.2332 300.8794 15.06408481 38060","PERIOD":"95.592","MEAN_MOTION_DDOT":"0.0000000000000","EPHEMERIS_TYPE":"0","RCS_SIZE":"LARGE","OBJECT_TYPE":"PAYLOAD","TIME_SYSTEM":"UTC","RA_OF_ASC_NODE":"152.1704","TLE_LINE1":"1 48428U 21040A   22013.69654338  .00000319  00000-0  40334-4 0  9996","NORAD_CAT_ID":"48428","CENTER_NAME":"EARTH","MEAN_ELEMENT_THEORY":"SGP4","EPOCH":"2022-01-13T16:43:01.348032","OBJECT_ID":"2021-040A","MEAN_ANOMALY":"300.8794","LAUNCH_DATE":"2021-05-09","MEAN_MOTION":"15.06408481","COUNTRY_CODE":"US","ARG_OF_PERICENTER":"59.2332","SEMIMAJOR_AXIS":"6925.323","REV_AT_EPOCH":"3806"},{"REV_AT_EPOCH":"356","MEAN_MOTION":"15.06423013","COUNTRY_CODE":"US","SEMIMAJOR_AXIS":"6925.278","ARG_OF_PERICENTER":"87.4646","LAUNCH_DATE":"2021-05-09","MEAN_ANOMALY":"197.2575","OBJECT_ID":"2021-040B","TLE_LINE1":"1 48429U 21040B   22013.91667824 -.00065598  00000-0 -44230-2 0  9995","CENTER_NAME":"EARTH","NORAD_CAT_ID":"48429","MEAN_ELEMENT_THEORY":"SGP4","EPOCH":"2022-01-13T22:00:00.999936","RA_OF_ASC_NODE":"121.1842","OBJECT_TYPE":"PAYLOAD","TIME_SYSTEM":"UTC","RCS_SIZE":"LARGE","EPHEMERIS_TYPE":"0","PERIOD":"95.591","MEAN_MOTION_DDOT":"0.0000000000000","PERIAPSIS":"546.228","TLE_LINE2":"2 48429  53.0543 121.1842 0001321  87.4646 197.2575 15.06423013  3565","OBJECT_NAME":"STARLINK-2749","DECAY_DATE":null,"SITE":"AFETR","CLASSIFICATION_TYPE":"U","MEAN_MOTION_DOT":"-0.00065598","ELEMENT_SET_NO":"999","FILE":"3272312","ECCENTRICITY":"0.00013210","APOAPSIS":"548.058","GP_ID":"193810619","REF_FRAME":"TEME","INCLINATION":"53.0543","BSTAR":"-0.00442300000000"},{"REV_AT_EPOCH":"3979","LAUNCH_DATE":"2021-05-09","SEMIMAJOR_AXIS":"6925.342","ARG_OF_PERICENTER":"92.5044","MEAN_MOTION":"15.06402242","COUNTRY_CODE":"US","OBJECT_ID":"2021-040C","MEAN_ANOMALY":"12.1885","RCS_SIZE":"LARGE","TIME_SYSTEM":"UTC","OBJECT_TYPE":"PAYLOAD","RA_OF_ASC_NODE":"121.1877","EPOCH":"2022-01-13T22:00:00.999936","MEAN_ELEMENT_THEORY":"SGP4","CENTER_NAME":"EARTH","TLE_LINE1":"1 48430U 21040C   22013.91667824 -.00025084  00000-0 -16709-2 0  9993","NORAD_CAT_ID":"48430","PERIOD":"95.592","MEAN_MOTION_DDOT":"0.0000000000000","EPHEMERIS_TYPE":"0","ELEMENT_SET_NO":"999","MEAN_MOTION_DOT":"-0.00025084","SITE":"AFETR","CLASSIFICATION_TYPE":"U","DECAY_DATE":null,"OBJECT_NAME":"STARLINK-2729","TLE_LINE2":"2 48430  53.0548 121.1877 0001266  92.5044  12.1885 15.06402242 39791","PERIAPSIS":"546.330","GP_ID":"193787542","APOAPSIS":"548.083","ECCENTRICITY":"0.00012660","FILE":"3272183","BSTAR":"-0.00167090000000","INCLINATION":"53.0548","REF_FRAME":"TEME"},{"ARG_OF_PERICENTER":"102.5297","SEMIMAJOR_AXIS":"6925.256","COUNTRY_CODE":"US","MEAN_MOTION":"15.06430258","LAUNCH_DATE":"2021-05-09","REV_AT_EPOCH":"357","RA_OF_ASC_NODE":"116.1781","EPOCH":"2022-01-13T22:00:00.999936","MEAN_ELEMENT_THEORY":"SGP4","TLE_LINE1":"1 48431U 21040D   22013.91667824 -.00077906  00000-0 -52645-2 0  9993","CENTER_NAME":"EARTH","NORAD_CAT_ID":"48431","RCS_SIZE":"LARGE","TIME_SYSTEM":"UTC","OBJECT_TYPE":"PAYLOAD","MEAN_ANOMALY":"289.6969","OBJECT_ID":"2021-040D","OBJECT_NAME":"STARLINK-2700","TLE_LINE2":"2 48431  53.0540 116.1781 0001476 102.5297 289.6969 15.06430258  3576","PERIAPSIS":"546.099","ELEMENT_SET_NO":"999","MEAN_MOTION_DOT":"-0.00077906","SITE":"AFETR","CLASSIFICATION_TYPE":"U","DECAY_DATE":null,"EPHEMERIS_TYPE":"0","MEAN_MOTION_DDOT":"0.0000000000000","PERIOD":"95.590","REF_FRAME":"TEME","BSTAR":"-0.00526450000000","INCLINATION":"53.0540","FILE":"3272312","ECCENTRICITY":"0.00014760","GP_ID":"193812121","APOAPSIS":"548.143"},{"EPHEMERIS_TYPE":"0","MEAN_MOTION_DDOT":"0.0000000000000","PERIOD":"95.591","PERIAPSIS":"546.356","TLE_LINE2":"2 48432  53.0543 111.1853 0001189 104.5524 235.1313 15.06411251  3561","OBJECT_NAME":"STARLINK-2680","SITE":"AFETR","CLASSIFICATION_TYPE":"U","DECAY_DATE":null,"ELEMENT_SET_NO":"999","MEAN_MOTION_DOT":"-0.00033049","ECCENTRICITY":"0.00011890","FILE":"3272312","APOAPSIS":"548.002","GP_ID":"193812372","REF_FRAME":"TEME","INCLINATION":"53.0543","BSTAR":"-0.00220950000000","REV_AT_EPOCH":"356","ARG_OF_PERICENTER":"104.5524","SEMIMAJOR_AXIS":"6925.314","MEAN_MOTION":"15.06411251","COUNTRY_CODE":"US","LAUNCH_DATE":"2021-05-09","MEAN_ANOMALY":"235.1313","OBJECT_ID":"2021-040E","MEAN_ELEMENT_THEORY":"SGP4","EPOCH":"2022-01-13T22:00:00.999936","TLE_LINE1":"1 48432U 21040E   22013.91667824 -.00033049  00000-0 -22095-2 0  9990","CENTER_NAME":"EARTH","NORAD_CAT_ID":"48432","RA_OF_ASC_NODE":"111.1853","TIME_SYSTEM":"UTC","OBJECT_TYPE":"PAYLOAD","RCS_SIZE":"LARGE"},{"OBJECT_TYPE":"PAYLOAD","TIME_SYSTEM":"UTC","RCS_SIZE":"LARGE","EPOCH":"2022-01-13T22:00:00.999936","MEAN_ELEMENT_THEORY":"SGP4","NORAD_CAT_ID":"48433","TLE_LINE1":"1 48433U 21040F   22013.91667824 -.00076190  00000-0 -51462-2 0  9995","CENTER_NAME":"EARTH","RA_OF_ASC_NODE":"116.1779","OBJECT_ID":"2021-040F","MEAN_ANOMALY":"108.4556","LAUNCH_DATE":"2021-05-09","ARG_OF_PERICENTER":"103.7320","SEMIMAJOR_AXIS":"6925.241","COUNTRY_CODE":"US","MEAN_MOTION":"15.06435227","REV_AT_EPOCH":"357","INCLINATION":"53.0540","BSTAR":"-0.00514620000000","REF_FRAME":"TEME","APOAPSIS":"547.964","GP_ID":"193811120","ECCENTRICITY":"0.00012400","FILE":"3272312","SITE":"AFETR","CLASSIFICATION_TYPE":"U","DECAY_DATE":null,"ELEMENT_SET_NO":"999","MEAN_MOTION_DOT":"-0.00076190","PERIAPSIS":"546.247","TLE_LINE2":"2 48433  53.0540 116.1779 0001240 103.7320 108.4556 15.06435227  3575","OBJECT_NAME":"STARLINK-2699","MEAN_MOTION_DDOT":"0.0000000000000","PERIOD":"95.590","EPHEMERIS_TYPE":"0"},{"MEAN_ANOMALY":"60.0579","OBJECT_ID":"2021-040G","RA_OF_ASC_NODE":"121.1901","EPOCH":"2022-01-13T22:00:00.999936","MEAN_ELEMENT_THEORY":"SGP4","TLE_LINE1":"1 48434U 21040G   22013.91667824 -.00069609  00000-0 -46960-2 0  9990","CENTER_NAME":"EARTH","NORAD_CAT_ID":"48434","RCS_SIZE":"LARGE","TIME_SYSTEM":"UTC","OBJECT_TYPE":"PAYLOAD","REV_AT_EPOCH":"3896","SEMIMAJOR_AXIS":"6925.250","ARG_OF_PERICENTER":"104.6331","COUNTRY_CODE":"US","MEAN_MOTION":"15.06432091","LAUNCH_DATE":"2021-05-09","FILE":"3272183","ECCENTRICITY":"0.00016320","APOAPSIS":"548.245","GP_ID":"193787079","REF_FRAME":"TEME","BSTAR":"-0.00469600000000","INCLINATION":"53.0564","EPHEMERIS_TYPE":"0","MEAN_MOTION_DDOT":"0.0000000000000","PERIOD":"95.590","OBJECT_NAME":"STARLINK-2692","TLE_LINE2":"2 48434  53.0564 121.1901 0001632 104.6331  60.0579 15.06432091 38967","PERIAPSIS":"545.985","ELEMENT_SET_NO":"999","MEAN_MOTION_DOT":"-0.00069609","SITE":"AFETR","CLASSIFICATION_TYPE":"U","DECAY_DATE":null},{"REV_AT_EPOCH":"3961","LAUNCH_DATE":"2021-05-09","COUNTRY_CODE":"US","MEAN_MOTION":"15.04784533","ARG_OF_PERICENTER":"83.6635","SEMIMAJOR_AXIS":"6930.304","OBJECT_ID":"2021-040H","MEAN_ANOMALY":"276.4529","OBJECT_TYPE":"PAYLOAD","TIME_SYSTEM":"UTC","RCS_SIZE":"LARGE","TLE_LINE1":"1 48435U 21040H   22013.59890020 -.00001984  00000-0 -11971-3 0  9998","NORAD_CAT_ID":"48435","CENTER_NAME":"EARTH","EPOCH":"2022-01-13T14:22:24.977280","MEAN_ELEMENT_THEORY":"SGP4","RA_OF_ASC_NODE":"131.7980","MEAN_MOTION_DDOT":"0.0000000000000","PERIOD":"95.695","EPHEMERIS_TYPE":"0","DECAY_DATE":null,"CLASSIFICATION_TYPE":"U","SITE":"AFETR","MEAN_MOTION_DOT":"-0.00001984","ELEMENT_SET_NO":"999","TLE_LINE2":"2 48435  53.0551 131.7980 0001544  83.6635 276.4529 15.04784533 39613","PERIAPSIS":"551.099","OBJECT_NAME":"STARLINK-2633","APOAPSIS":"553.239","GP_ID":"193780820","ECCENTRICITY":"0.00015440","FILE":"3271980","INCLINATION":"53.0551","BSTAR":"-0.00011971000000","REF_FRAME":"TEME"}];
